LIME                    
1 62648U 25009AR  26068.73906781  .00013254  00000+0  47723-3 0  9995
2 62648  97.3985 151.4831 0001635  35.9029 324.2320 15.28703313 63766
STARLINK-32807          
1 62845U 25019S   26068.08017430  .00026278  00000+0  96135-3 0  9998
2 62845  42.9955  84.9826 0000983 150.1615 209.9293 15.27569080 62248
